H1 CPF  2  SGF 2024 11 21  2  326 01 lares     
H2  1200601 5987    38077 2024 11 20  0  0  0 2024 11 25 23 57  0   180 1 1  0 0 0 1
H9
10 0 60636  82800.00000  0   4808609.508  -1008972.458  -6083460.043
10 0 60636  82980.00000  0   4080318.487   -181184.033  -6668926.372
10 0 60636  83160.00000  0   3265155.494    671705.352  -7074835.202
10 0 60636  83340.00000  0   2385332.100   1528927.898  -7290392.460
10 0 60636  83520.00000  0   1464188.022   2369027.927  -7309905.385
10 0 60636  83700.00000  0    525565.748   3170399.303  -7132918.708
10 0 60636  83880.00000  0   -406808.795   3911842.104  -6764219.453
10 0 60636  84060.00000  0  -1309926.065   4573126.245  -6213710.354
10 0 60636  84240.00000  0  -2162060.268   5135549.072  -5496154.561
10 0 60636  84420.00000  0  -2943292.618   5582473.617  -4630795.101
10 0 60636  84600.00000  0  -3635979.012   5899831.082  -3640854.294
10 0 60636  84780.00000  0  -4225150.281   6076570.842  -2552923.793
10 0 60636  84960.00000  0  -4698835.867   6105043.032  -1396258.585
10 0 60636  85140.00000  0  -5048301.812   5981298.216   -201990.356
10 0 60636  85320.00000  0  -5268195.786   5705289.048    997718.621
10 0 60636  85500.00000  0  -5356594.107   5280963.660   2170555.357
10 0 60636  85680.00000  0  -5314949.762   4716244.375   3284941.213
10 0 60636  85860.00000  0  -5147945.643   4022892.513   4310892.175
10 0 60636  86040.00000  0  -4863263.030   3216263.688   5220829.272
10 0 60636  86220.00000  0  -4471275.766   2314960.625   5990316.296
10 0 60637      0.00000  0  -3984683.423   1340394.858   6598705.203
10 0 60637    180.00000  0  -3418098.309    316270.383   7029675.219
10 0 60637    360.00000  0  -2787600.990   -731998.088   7271654.999
10 0 60637    540.00000  0  -2110278.368  -1777917.815   7318120.775
10 0 60637    720.00000  0  -1403757.202  -2794588.125   7167766.990
10 0 60637    900.00000  0   -685743.838  -3755394.759   6824546.318
10 0 60637   1080.00000  0     26419.783  -4634712.624   6297576.608
10 0 60637   1260.00000  0    716174.070  -5408599.993   5600916.417
10 0 60637   1440.00000  0   1368125.556  -6055468.689   4753211.947
10 0 60637   1620.00000  0   1968389.161  -6556711.772   3777217.971
10 0 60637   1800.00000  0   2504881.186  -6897266.923   2699199.808
10 0 60637   1980.00000  0   2967555.188  -7066094.005   1548229.839
10 0 60637   2160.00000  0   3348574.297  -7056548.780    355397.077
10 0 60637   2340.00000  0   3642416.247  -6866636.818   -847048.458
10 0 60637   2520.00000  0   3845908.184  -6499134.518  -2026590.828
10 0 60637   2700.00000  0   3958191.676  -5961569.816  -3151351.934
10 0 60637   2880.00000  0   3980621.849  -5266063.470  -4190973.814
10 0 60637   3060.00000  0   3916607.099  -4429036.263  -5117450.833
10 0 60637   3240.00000  0   3771398.622  -3470793.995  -5905885.909
10 0 60637   3420.00000  0   3551840.837  -2415006.329  -6535149.929
10 0 60637   3600.00000  0   3266095.749  -1288097.837  -6988430.465
10 0 60637   3780.00000  0   2923352.009   -118567.675  -7253660.492
10 0 60637   3960.00000  0   2533528.529   1063743.587  -7323818.141
10 0 60637   4140.00000  0   2106983.907   2228420.079  -7197095.469
10 0 60637   4320.00000  0   1654239.500   3345254.458  -6876936.930
10 0 60637   4500.00000  0   1185721.574   4385033.333  -6371947.223
10 0 60637   4680.00000  0    711527.392   5320306.963  -5695669.532
10 0 60637   4860.00000  0    241219.459   6126125.381  -4866237.475
10 0 60637   5040.00000  0   -216349.701   6780722.206  -3905905.188
10 0 60637   5220.00000  0   -653180.036   7266125.315  -2840463.673
10 0 60637   5400.00000  0  -1062231.899   7568674.331  -1698556.127
10 0 60637   5580.00000  0  -1437497.980   7679426.842   -510909.357
10 0 60637   5760.00000  0  -1774040.225   7594438.875    690497.751
10 0 60637   5940.00000  0  -2067993.687   7314908.059   1873306.696
10 0 60637   6120.00000  0  -2316539.134   6847169.156   3005666.230
10 0 60637   6300.00000  0  -2517847.394   6202541.510   4057101.924
10 0 60637   6480.00000  0  -2671000.258   5397036.875   4999341.776
10 0 60637   6660.00000  0  -2775893.717   4450938.701   5807074.614
10 0 60637   6840.00000  0  -2833130.053   3388268.178   6458621.306
10 0 60637   7020.00000  0  -2843906.304   2236153.798   6936502.948
10 0 60637   7200.00000  0  -2809904.966   1024123.498   7227893.938
10 0 60637   7380.00000  0  -2733192.855   -216661.064   7324952.386
10 0 60637   7560.00000  0  -2616132.859  -1454209.763   7225023.211
10 0 60637   7740.00000  0  -2461311.855  -2656530.751   6930711.239
10 0 60637   7920.00000  0  -2271486.801  -3792461.638   6449823.486
10 0 60637   8100.00000  0  -2049549.531  -4832487.551   5795178.698
10 0 60637   8280.00000  0  -1798509.967  -5749524.803   4984285.745
10 0 60637   8460.00000  0  -1521496.136  -6519651.793   4038896.254
10 0 60637   8640.00000  0  -1221767.150  -7122766.248   2984436.190
10 0 60637   8820.00000  0   -902736.083  -7543145.309   1849328.344
10 0 60637   9000.00000  0   -567998.982  -7769889.541    664222.782
10 0 60637   9180.00000  0   -221366.055  -7797233.085   -538845.031
10 0 60637   9360.00000  0    133109.509  -7624705.179  -1727342.435
10 0 60637   9540.00000  0    491108.152  -7257135.932  -2869143.669
10 0 60637   9720.00000  0    848029.600  -6704507.526  -3933419.646
10 0 60637   9900.00000  0   1198990.376  -5981657.433  -4891485.274
10 0 60637  10080.00000  0   1538836.007  -5107845.975  -5717577.397
10 0 60637  10260.00000  0   1862170.104  -4106206.771  -6389541.411
10 0 60637  10440.00000  0   2163402.739  -3003100.483  -6889410.002
10 0 60637  10620.00000  0   2436818.858  -1827394.446  -7203862.346
10 0 60637  10800.00000  0   2676667.959   -609689.020  -7324557.801
10 0 60637  10980.00000  0   2877274.583    618489.243  -7248338.752
10 0 60637  11160.00000  0   3033169.538   1825506.917  -6977302.132
10 0 60637  11340.00000  0   3139239.812   2980439.173  -6518740.702
10 0 60637  11520.00000  0   3190893.047   4053864.330  -5884954.640
10 0 60637  11700.00000  0   3184231.739   5018620.469  -5092936.181
10 0 60637  11880.00000  0   3116230.891   5850506.336  -4163930.804
10 0 60637  12060.00000  0   2984911.190   6528907.452  -3122882.091
10 0 60637  12240.00000  0   2789499.995   7037328.956  -1997771.906
10 0 60637  12420.00000  0   2530571.184   7363818.660   -818870.849
10 0 60637  12600.00000  0   2210155.624   7501264.314    382081.746
10 0 60637  12780.00000  0   1831815.510   7447553.504   1572743.019
10 0 60637  12960.00000  0   1400677.983   7205591.724   2721049.848
10 0 60637  13140.00000  0    923423.602   6783179.665   3796093.530
10 0 60637  13320.00000  0    408227.377   6192754.737   4768959.541
10 0 60637  13500.00000  0   -135348.237   5451006.684   5613507.492
10 0 60637  13680.00000  0   -696506.744   4578380.876   6307067.299
10 0 60637  13860.00000  0  -1263413.715   3598492.046   6831032.992
10 0 60637  14040.00000  0  -1823432.928   2537467.950   7171345.972
10 0 60637  14220.00000  0  -2363398.906   1423240.723   7318857.848
10 0 60637  14400.00000  0  -2869921.615    284805.010   7269567.228
10 0 60637  14580.00000  0  -3329717.648   -848539.938   7024726.697
10 0 60637  14760.00000  0  -3729960.920  -1947946.852   6590817.761
10 0 60637  14940.00000  0  -4058645.356  -2985759.001   5979394.797
10 0 60637  15120.00000  0  -4304951.000  -3936216.743   5206798.101
10 0 60637  15300.00000  0  -4459601.114  -4776113.810   4293737.005
10 0 60637  15480.00000  0  -4515197.933  -5485385.141   3264751.311
10 0 60637  15660.00000  0  -4466524.728  -6047610.652   2147561.243
10 0 60637  15840.00000  0  -4310800.009  -6450418.423    972319.460
10 0 60637  16020.00000  0  -4047871.457  -6685771.944   -229214.286
10 0 60637  16200.00000  0  -3680339.197  -6750131.430  -1424551.048
10 0 60637  16380.00000  0  -3213600.798  -6644482.767  -2581375.316
10 0 60637  16560.00000  0  -2655813.563  -6374233.908  -3668441.819
10 0 60637  16740.00000  0  -2017773.879  -5948984.602  -4656436.732
10 0 60637  16920.00000  0  -1312717.037  -5382180.730  -5518775.542
10 0 60637  17100.00000  0   -556043.690  -4690670.011  -6232314.540
10 0 60637  17280.00000  0    235019.005  -3894177.463  -6777958.750
10 0 60637  17460.00000  0   1041812.648  -3014719.867  -7141153.055
10 0 60637  17640.00000  0   1844689.074  -2075979.537  -7312248.247
10 0 60637  17820.00000  0   2623489.304  -1102655.657  -7286738.616
10 0 60637  18000.00000  0   3358049.896   -119808.717  -7065367.862
10 0 60637  18180.00000  0   4028725.696    847785.638  -6654103.403
10 0 60637  18360.00000  0   4616918.438   1776260.415  -6063981.067
10 0 60637  18540.00000  0   5105598.747   2643246.315  -5310821.894
10 0 60637  18720.00000  0   5479808.071   3428413.210  -4414824.694
10 0 60637  18900.00000  0   5727124.989   4113952.008  -3400040.432
10 0 60637  19080.00000  0   5838079.807   4684984.532  -2293738.178
10 0 60637  19260.00000  0   5806501.144   5129889.503  -1125676.364
10 0 60637  19440.00000  0   5629779.757   5440534.233     72701.038
10 0 60637  19620.00000  0   5309037.717   5612405.705   1269120.142
10 0 60637  19800.00000  0   4849194.160   5644638.093   2431358.682
10 0 60637  19980.00000  0   4258923.570   5539937.202   3528126.627
10 0 60637  20160.00000  0   3550505.290   5304405.732   4529918.235
10 0 60637  20340.00000  0   2739569.752   4947278.726   5409808.456
10 0 60637  20520.00000  0   1844748.070   4480581.779   6144172.621
10 0 60637  20700.00000  0    887236.177   3918725.634   6713308.518
10 0 60637  20880.00000  0   -109713.094   3278055.013   7101948.862
10 0 60637  21060.00000  0  -1121358.011   2576365.639   7299655.263
10 0 60637  21240.00000  0  -2122082.833   1832404.234   7301087.070
10 0 60637  21420.00000  0  -3086046.502   1065364.666   7106141.920
10 0 60637  21600.00000  0  -3987852.246    294391.473   6719965.833
10 0 60637  21780.00000  0  -4803223.846   -461898.543   6152831.021
99